ONEWEB-0319             
1 49105U 21075AG  25063.12851584  .00000028  00000+0  39259-4 0  9995
2 49105  87.9021  99.5294 0001472 102.1232 258.0064 13.17646878172692
ONEWEB-0323             
1 49106U 21075AH  25062.58116107  .00000437  00000+0  11792-2 0  9994
2 49106  87.8799  84.3251 0001156 103.3812 256.7445 13.12443300173829
ONEWEB-0329             
1 49107U 21075AJ  25062.60540546  .00000030  00000+0  44198-4 0  9993
2 49107  87.9021  99.6385 0001704  94.1996 265.9330 13.17647626172607
ONEWEB-0330             
1 49108U 21075AK  25062.60709434 -.00000001  00000+0 -35083-4 0  9990
2 49108  87.9022  99.6403 0001785  88.4914 271.6422 13.17648114172648
ONEWEB-0292             
1 49186U 21083A   25062.92042117 -.00000385  00000+0 -10902-2 0  9994
2 49186  87.8900  53.7372 0001755  90.6808 269.4522 13.13343132169198
ONEWEB-0303             
1 49187U 21083B   25063.02240369  .00000045  00000+0  80831-4 0  9997
2 49187  87.9051  68.9460 0001728  93.7894 266.3436 13.18685046169291
ONEWEB-0306             
1 49188U 21083C   25062.93704665  .00000019  00000+0  14588-4 0  9998
2 49188  87.9049  68.9482 0001986  84.8840 275.2518 13.18685407168044
ONEWEB-0307             
1 49189U 21083D   25062.91474882 -.00000263  00000+0 -75630-3 0  9999
2 49189  87.8901  53.7412 0002062  77.6822 282.4538 13.13380225169196
